GLOBALSTAR M024         
1 25883U 99043A   25316.30446139 -.00000102  00000+0 -13302-2 0  9993
2 25883  52.0049  46.4136 0000907 359.7677  33.3466 11.10170039131319
GLOBALSTAR M027         
1 25884U 99043B   25316.21224505 -.00000053  00000+0  39485-3 0  9990
2 25884  52.0172 128.7996 0020672 228.2069 131.6958 11.04373245157594
GLOBALSTAR M054         
1 25885U 99043C   25316.26180009 -.00000016  00000+0  14140-2 0  9995
2 25885  52.0130 231.1405 0005912  68.7891 101.7217 11.39223358135929
GLOBALSTAR M053         
1 25886U 99043D   25316.12949664 -.00000059  00000+0  28338-3 0  9993
2 25886  51.9953 186.7615 0003436 355.3379 168.9912 11.27668538136135
GLOBALSTAR M058         
1 25907U 99049A   25316.24727324 -.00000042  00000+0  56899-3 0  9998
2 25907  51.9945  73.8096 0002172 176.8645 183.2204 11.93204256559215
GLOBALSTAR M050         
1 25908U 99049B   25316.08626326  .00000008  00000+0  10830-2 0  9996
2 25908  51.9997  70.8661 0008370 329.4449 202.1895 12.07460780166057
GLOBALSTAR M033         
1 25909U 99049C   25316.27817899 -.00000097  00000+0 -54657-4 0  9992
2 25909  51.9920 291.9454 0013579 209.2342 150.7746 12.20293044553824
GLOBALSTAR M055         
1 25910U 99049D   25316.22331700 -.00000040  00000+0  46505-3 0  9990
2 25910  52.0028 295.6397 0007328  77.2747 282.8924 12.29435579186491
